start=new Date('2023-07-03T00:00:00.000Z').valueOf();
sats=[{"TLE_LINE2":"2 51859  53.2164  95.3125 0001161  91.3769 268.7357 15.08844809 74983","EPHEMERIS_TYPE":"0","MEAN_ELEMENT_THEORY":"SGP4","REV_AT_EPOCH":"7498","MEAN_MOTION_DDOT":"0.0000000000000","RCS_SIZE":"LARGE","MEAN_ANOMALY":"268.7357","SITE":"AFETR","OBJECT_NAME":"STARLINK-3560","LAUNCH_DATE":"2022-03-03","RA_OF_ASC_NODE":"95.3125","OBJECT_ID":"2022-022H","TIME_SYSTEM":"UTC","ELEMENT_SET_NO":"999","GP_ID":"234672427","INCLINATION":"53.2164","TLE_LINE1":"1 51859U 22022H   23183.17670202 -.00000400  00000-0 -70759-5 0  9997","COUNTRY_CODE":"US","APOAPSIS":"540.534","PERIAPSIS":"538.928","DECAY_DATE":null,"BSTAR":"-0.00000707590000","ARG_OF_PERICENTER":"91.3769","MEAN_MOTION_DOT":"-0.00000400","CENTER_NAME":"EARTH","FILE":"3947677","ECCENTRICITY":"0.00011610","PERIOD":"95.437","CLASSIFICATION_TYPE":"U","EPOCH":"2023-07-02T04:14:27.054528","OBJECT_TYPE":"PAYLOAD","NORAD_CAT_ID":"51859","SEMIMAJOR_AXIS":"6917.866","MEAN_MOTION":"15.08844809","REF_FRAME":"TEME"},{"PERIAPSIS":"539.022","DECAY_DATE":null,"COUNTRY_CODE":"US","TLE_LINE1":"1 51860U 22022J   23183.05062490  .00002669  00000-0  18567-3 0  9994","APOAPSIS":"540.436","INCLINATION":"53.2157","ELEMENT_SET_NO":"999","GP_ID":"234666247","TIME_SYSTEM":"UTC","LAUNCH_DATE":"2022-03-03","OBJECT_NAME":"STARLINK-3559","SITE":"AFETR","OBJECT_ID":"2022-022J","RA_OF_ASC_NODE":"95.8687","EPHEMERIS_TYPE":"0","MEAN_ELEMENT_THEORY":"SGP4","TLE_LINE2":"2 51860  53.2157  95.8687 0001022  81.4800 278.6308 15.08845458 74928","RCS_SIZE":"LARGE","MEAN_ANOMALY":"278.6308","REV_AT_EPOCH":"7492","MEAN_MOTION_DDOT":"0.0000000000000","OBJECT_TYPE":"PAYLOAD","NORAD_CAT_ID":"51860","REF_FRAME":"TEME","SEMIMAJOR_AXIS":"6917.864","MEAN_MOTION":"15.08845458","PERIOD":"95.437","CLASSIFICATION_TYPE":"U","EPOCH":"2023-07-02T01:12:53.991360","CENTER_NAME":"EARTH","ECCENTRICITY":"0.00010220","FILE":"3947401","BSTAR":"0.00018567000000","MEAN_MOTION_DOT":"0.00002669","ARG_OF_PERICENTER":"81.4800"},{"PERIOD":"95.437","CLASSIFICATION_TYPE":"U","EPOCH":"2023-07-02T00:51:41.837760","OBJECT_TYPE":"PAYLOAD","NORAD_CAT_ID":"51861","SEMIMAJOR_AXIS":"6917.853","MEAN_MOTION":"15.08848976","REF_FRAME":"TEME","BSTAR":"0.00001703300000","ARG_OF_PERICENTER":"87.2799","MEAN_MOTION_DOT":"-0.00000017","CENTER_NAME":"EARTH","FILE":"3947401","ECCENTRICITY":"0.00012090","TIME_SYSTEM":"UTC","ELEMENT_SET_NO":"999","GP_ID":"234666256","INCLINATION":"53.2177","TLE_LINE1":"1 51861U 22022K   23183.03590090 -.00000017  00000-0  17033-4 0  9999","COUNTRY_CODE":"US","APOAPSIS":"540.554","DECAY_DATE":null,"PERIAPSIS":"538.882","TLE_LINE2":"2 51861  53.2177  95.9356 0001209  87.2799 272.8332 15.08848976 74902","MEAN_ELEMENT_THEORY":"SGP4","EPHEMERIS_TYPE":"0","REV_AT_EPOCH":"7490","MEAN_MOTION_DDOT":"0.0000000000000","MEAN_ANOMALY":"272.8332","RCS_SIZE":"LARGE","OBJECT_NAME":"STARLINK-3562","SITE":"AFETR","LAUNCH_DATE":"2022-03-03","OBJECT_ID":"2022-022K","RA_OF_ASC_NODE":"95.9356"},{"SEMIMAJOR_AXIS":"6917.877","MEAN_MOTION":"15.08841264","REF_FRAME":"TEME","OBJECT_TYPE":"PAYLOAD","NORAD_CAT_ID":"51862","EPOCH":"2023-07-02T10:39:55.035936","CLASSIFICATION_TYPE":"U","PERIOD":"95.437","ECCENTRICITY":"0.00012630","FILE":"3947730","CENTER_NAME":"EARTH","ARG_OF_PERICENTER":"92.8397","MEAN_MOTION_DOT":"-0.00001371","BSTAR":"-0.00006805000000","TLE_LINE1":"1 51862U 22022L   23183.44438699 -.00001371  00000-0 -68050-4 0  9991","COUNTRY_CODE":"US","INCLINATION":"53.2172","APOAPSIS":"540.615","PERIAPSIS":"538.868","DECAY_DATE":null,"TIME_SYSTEM":"UTC","GP_ID":"234673806","ELEMENT_SET_NO":"999","RA_OF_ASC_NODE":"94.0999","OBJECT_ID":"2022-022L","SITE":"AFETR","OBJECT_NAME":"STARLINK-3508","LAUNCH_DATE":"2022-03-03","REV_AT_EPOCH":"7503","MEAN_MOTION_DDOT":"0.0000000000000","RCS_SIZE":"LARGE","MEAN_ANOMALY":"267.2740","TLE_LINE2":"2 51862  53.2172  94.0999 0001263  92.8397 267.2740 15.08841264 75036","MEAN_ELEMENT_THEORY":"SGP4","EPHEMERIS_TYPE":"0"},{"EPOCH":"2023-07-02T00:41:05.958816","CLASSIFICATION_TYPE":"U","PERIOD":"95.437","SEMIMAJOR_AXIS":"6917.846","MEAN_MOTION":"15.08851297","REF_FRAME":"TEME","OBJECT_TYPE":"PAYLOAD","NORAD_CAT_ID":"51863","ARG_OF_PERICENTER":"88.1693","MEAN_MOTION_DOT":"0.00001118","BSTAR":"0.00008829000000","ECCENTRICITY":"0.00011790","FILE":"3947402","CENTER_NAME":"EARTH","TIME_SYSTEM":"UTC","ELEMENT_SET_NO":"999","GP_ID":"234666268","TLE_LINE1":"1 51863U 22022M   23183.02854119  .00001118  00000-0  88290-4 0  9990","APOAPSIS":"540.526","COUNTRY_CODE":"US","INCLINATION":"53.2173","PERIAPSIS":"538.895","DECAY_DATE":null,"REV_AT_EPOCH":"7491","MEAN_MOTION_DDOT":"0.0000000000000","RCS_SIZE":"LARGE","MEAN_ANOMALY":"271.9435","TLE_LINE2":"2 51863  53.2173  95.9688 0001179  88.1693 271.9435 15.08851297 74912","MEAN_ELEMENT_THEORY":"SGP4","EPHEMERIS_TYPE":"0","RA_OF_ASC_NODE":"95.9688","OBJECT_ID":"2022-022M","OBJECT_NAME":"STARLINK-3555","SITE":"AFETR","LAUNCH_DATE":"2022-03-03"},{"TLE_LINE2":"2 51864  53.2176  95.9236 0001144  90.1565 269.9559 15.08846025 74960","MEAN_ELEMENT_THEORY":"SGP4","EPHEMERIS_TYPE":"0","MEAN_MOTION_DDOT":"0.0000000000000","REV_AT_EPOCH":"7496","MEAN_ANOMALY":"269.9559","RCS_SIZE":"LARGE","OBJECT_NAME":"STARLINK-3548","SITE":"AFETR","LAUNCH_DATE":"2022-03-03","RA_OF_ASC_NODE":"95.9236","OBJECT_ID":"2022-022N","TIME_SYSTEM":"UTC","ELEMENT_SET_NO":"999","GP_ID":"234665887","TLE_LINE1":"1 51864U 22022N   23183.04054168 -.00000244  00000-0  27573-5 0  9997","APOAPSIS":"540.518","COUNTRY_CODE":"US","INCLINATION":"53.2176","PERIAPSIS":"538.936","DECAY_DATE":null,"BSTAR":"0.00000275730000","ARG_OF_PERICENTER":"90.1565","MEAN_MOTION_DOT":"-0.00000244","CENTER_NAME":"EARTH","FILE":"3947402","ECCENTRICITY":"0.00011440","PERIOD":"95.437","EPOCH":"2023-07-02T00:58:22.801152","CLASSIFICATION_TYPE":"U","NORAD_CAT_ID":"51864","OBJECT_TYPE":"PAYLOAD","MEAN_MOTION":"15.08846025","SEMIMAJOR_AXIS":"6917.862","REF_FRAME":"TEME"},{"TLE_LINE2":"2 51865  53.2173  96.0044 0001033  95.5041 264.6069 15.08846234 74917","EPHEMERIS_TYPE":"0","MEAN_ELEMENT_THEORY":"SGP4","MEAN_MOTION_DDOT":"0.0000000000000","REV_AT_EPOCH":"7491","MEAN_ANOMALY":"264.6069","RCS_SIZE":"LARGE","SITE":"AFETR","OBJECT_NAME":"STARLINK-3503","LAUNCH_DATE":"2022-03-03","RA_OF_ASC_NODE":"96.0044","OBJECT_ID":"2022-022P","TIME_SYSTEM":"UTC","GP_ID":"234665886","ELEMENT_SET_NO":"999","COUNTRY_CODE":"US","TLE_LINE1":"1 51865U 22022P   23183.02118257  .00000593  00000-0  55301-4 0  9991","APOAPSIS":"540.441","INCLINATION":"53.2173","PERIAPSIS":"539.012","DECAY_DATE":null,"BSTAR":"0.00005530100000","ARG_OF_PERICENTER":"95.5041","MEAN_MOTION_DOT":"0.00000593","CENTER_NAME":"EARTH","ECCENTRICITY":"0.00010330","FILE":"3947402","PERIOD":"95.437","EPOCH":"2023-07-02T00:30:30.174048","CLASSIFICATION_TYPE":"U","NORAD_CAT_ID":"51865","OBJECT_TYPE":"PAYLOAD","MEAN_MOTION":"15.08846234","SEMIMAJOR_AXIS":"6917.861","REF_FRAME":"TEME"},{"CENTER_NAME":"EARTH","FILE":"3947403","ECCENTRICITY":"0.00010770","BSTAR":"0.00006968300000","ARG_OF_PERICENTER":"86.4516","MEAN_MOTION_DOT":"0.00000822","OBJECT_TYPE":"PAYLOAD","NORAD_CAT_ID":"51866","SEMIMAJOR_AXIS":"6917.846","MEAN_MOTION":"15.08851194","REF_FRAME":"TEME","PERIOD":"95.437","EPOCH":"2023-07-02T00:46:23.962656","CLASSIFICATION_TYPE":"U","SITE":"AFETR","OBJECT_NAME":"STARLINK-3553","LAUNCH_DATE":"2022-03-03","RA_OF_ASC_NODE":"95.9518","OBJECT_ID":"2022-022Q","TLE_LINE2":"2 51866  53.2172  95.9518 0001077  86.4516 273.6599 15.08851194 74914","MEAN_ELEMENT_THEORY":"SGP4","EPHEMERIS_TYPE":"0","REV_AT_EPOCH":"7491","MEAN_MOTION_DDOT":"0.0000000000000","MEAN_ANOMALY":"273.6599","RCS_SIZE":"LARGE","TLE_LINE1":"1 51866U 22022Q   23183.03222179  .00000822  00000-0  69683-4 0  9995","COUNTRY_CODE":"US","APOAPSIS":"540.456","INCLINATION":"53.2172","PERIAPSIS":"538.966","DECAY_DATE":null,"TIME_SYSTEM":"UTC","ELEMENT_SET_NO":"999","GP_ID":"234665899"},{"REV_AT_EPOCH":"7498","MEAN_MOTION_DDOT":"0.0000000000000","RCS_SIZE":"LARGE","MEAN_ANOMALY":"265.1928","TLE_LINE2":"2 51867  53.2167  93.9391 0001194  94.9201 265.1928 15.08813318 74986","MEAN_ELEMENT_THEORY":"SGP4","EPHEMERIS_TYPE":"0","OBJECT_ID":"2022-022R","RA_OF_ASC_NODE":"93.9391","OBJECT_NAME":"STARLINK-3590","SITE":"AFETR","LAUNCH_DATE":"2022-03-03","TIME_SYSTEM":"UTC","ELEMENT_SET_NO":"999","GP_ID":"234679220","TLE_LINE1":"1 51867U 22022R   23183.48119466  .00006824  00000-0  44677-3 0  9992","APOAPSIS":"540.653","COUNTRY_CODE":"US","INCLINATION":"53.2167","DECAY_DATE":null,"PERIAPSIS":"539.001","ARG_OF_PERICENTER":"94.9201","MEAN_MOTION_DOT":"0.00006824","BSTAR":"0.00044677000000","ECCENTRICITY":"0.00011940","FILE":"3947916","CENTER_NAME":"EARTH","EPOCH":"2023-07-02T11:32:55.218624","CLASSIFICATION_TYPE":"U","PERIOD":"95.439","SEMIMAJOR_AXIS":"6917.962","MEAN_MOTION":"15.08813318","REF_FRAME":"TEME","OBJECT_TYPE":"PAYLOAD","NORAD_CAT_ID":"51867"},{"LAUNCH_DATE":"2022-03-03","SITE":"AFETR","OBJECT_NAME":"STARLINK-3578","OBJECT_ID":"2022-022S","RA_OF_ASC_NODE":"95.3938","EPHEMERIS_TYPE":"0","MEAN_ELEMENT_THEORY":"SGP4","TLE_LINE2":"2 51868  53.2173  95.3938 0001189  83.5343 276.5784 15.08853615 74937","RCS_SIZE":"LARGE","MEAN_ANOMALY":"276.5784","MEAN_MOTION_DDOT":"0.0000000000000","REV_AT_EPOCH":"7493","DECAY_DATE":null,"PERIAPSIS":"538.881","TLE_LINE1":"1 51868U 22022S   23183.15734039  .00000894  00000-0  74239-4 0  9995","INCLINATION":"53.2173","COUNTRY_CODE":"US","APOAPSIS":"540.526","GP_ID":"234672446","ELEMENT_SET_NO":"999","TIME_SYSTEM":"UTC","CENTER_NAME":"EARTH","ECCENTRICITY":"0.00011890","FILE":"3947678","BSTAR":"0.00007423900000","MEAN_MOTION_DOT":"0.00000894","ARG_OF_PERICENTER":"83.5343","NORAD_CAT_ID":"51868","OBJECT_TYPE":"PAYLOAD","REF_FRAME":"TEME","MEAN_MOTION":"15.08853615","SEMIMAJOR_AXIS":"6917.839","PERIOD":"95.437","EPOCH":"2023-07-02T03:46:34.209696","CLASSIFICATION_TYPE":"U"}];
